{"type": "FeatureCollection", "features": [ {"type": "Feature", "properties": {"norad_id": 35703, "name": "COSMOS 2251 DEB", "group": "cosmos-2251-debris", "lat": -54.856115588401465, "lon": -121.5827086655776, "alt_km": 635.2170585817412, "timestamp": "2025-12-16T21:38:57.571831+00:00", "meta": {"OBJECT_NAME": "COSMOS 2251 DEB", "OBJECT_ID": "1993-036APY", "EPOCH": "2025-12-15T20:25:28.556544", "MEAN_MOTION": 14.90392841, "ECCENTRICITY": 0.00646354, "INCLINATION": 74.0432, "RA_OF_ASC_NODE": 36.5378, "ARG_OF_PERICENTER": 105.3877, "MEAN_ANOMALY": 255.4458, "EPHEMERIS_TYPE": 0, "CLASSIFICATION_TYPE": "U", "NORAD_CAT_ID": 35703, "ELEMENT_SET_NO": 999, "REV_AT_EPOCH": 66662, "BSTAR": 0.00039261957, "MEAN_MOTION_DOT": 3.941e-05, "MEAN_MOTION_DDOT": 0}, "tle": {"line1": "1 35703U 93036APY 25349.85102496  .00003941  00000+0  39262-3 0  9998", "line2": "2 35703  74.0432  36.5378 0064635 105.3877 255.4458 14.90392841666627"}}, "geometry": {"type": "Point", "coordinates": [-121.5827086655776, -54.856115588401465]}}, {"type": "Feature", "properties": {"norad_id": 35705, "name": "COSMOS 2251 DEB", "group": "cosmos-2251-debris", "lat": 64.3149228952265, "lon": -88.01829907968386, "alt_km": 627.6317048388391, "timestamp": "2025-12-16T21:38:57.571842+00:00", "meta": {"OBJECT_NAME": "COSMOS 2251 DEB", "OBJECT_ID": "1993-036AQA", "EPOCH": "2025-12-13T16:30:25.570944", "MEAN_MOTION": 14.72285684, "ECCENTRICITY": 0.00330748, "INCLINATION": 74.2763, "RA_OF_ASC_NODE": 133.9994, "ARG_OF_PERICENTER": 83.0917, "MEAN_ANOMALY": 277.4017, "EPHEMERIS_TYPE": 0, "CLASSIFICATION_TYPE": "U", "NORAD_CAT_ID": 35705, "ELEMENT_SET_NO": 999, "REV_AT_EPOCH": 85940, "BSTAR": 0.003032246, "MEAN_MOTION_DOT": 0.00019351, "MEAN_MOTION_DDOT": 0}, "tle": {"line1": "1 35705U 93036AQA 25347.68779596  .00019351  00000+0  30322-2 0  9999", "line2": "2 35705  74.2763 133.9994 0033074  83.0917 277.4017 14.72285684859405"}}, "geometry": {"type": "Point", "coordinates": [-88.01829907968386, 64.3149228952265]}}, {"type": "Feature", "properties": {"norad_id": 35706, "name": "COSMOS 2251 DEB", "group": "cosmos-2251-debris", "lat": -39.04647850216494, "lon": -110.5093180688951, "alt_km": 1123.2456625790583, "timestamp": "2025-12-16T21:38:57.571852+00:00", "meta": {"OBJECT_NAME": "COSMOS 2251 DEB", "OBJECT_ID": "1993-036AQB", "EPOCH": "2025-12-14T21:08:56.537088", "MEAN_MOTION": 13.65929011, "ECCENTRICITY": 0.03404676, "INCLINATION": 73.8893, "RA_OF_ASC_NODE": 59.2702, "ARG_OF_PERICENTER": 108.6738, "MEAN_ANOMALY": 255.1655, "EPHEMERIS_TYPE": 0, "CLASSIFICATION_TYPE": "U", "NORAD_CAT_ID": 35706, "ELEMENT_SET_NO": 999, "REV_AT_EPOCH": 62091, "BSTAR": 0.00069767153, "MEAN_MOTION_DOT": 8.33e-06, "MEAN_MOTION_DDOT": 0}, "tle": {"line1": "1 35706U 93036AQB 25348.88120992  .00000833  00000+0  69767-3 0  9994", "line2": "2 35706  73.8893  59.2702 0340467 108.6738 255.1655 13.65929011620917"}}, "geometry": {"type": "Point", "coordinates": [-110.5093180688951, -39.04647850216494]}}, {"type": "Feature", "properties": {"norad_id": 35711, "name": "COSMOS 2251 DEB", "group": "cosmos-2251-debris", "lat": -41.56581524079355, "lon": -162.22269972808874, "alt_km": 626.9142081723994, "timestamp": "2025-12-16T21:38:57.571862+00:00", "meta": {"OBJECT_NAME": "COSMOS 2251 DEB", "OBJECT_ID": "1993-036AQG", "EPOCH": "2025-12-15T21:14:30.906816", "MEAN_MOTION": 14.63810454, "ECCENTRICITY": 0.00854956, "INCLINATION": 74.0453, "RA_OF_ASC_NODE": 214.4239, "ARG_OF_PERICENTER": 314.6741, "MEAN_ANOMALY": 44.748, "EPHEMERIS_TYPE": 0, "CLASSIFICATION_TYPE": "U", "NORAD_CAT_ID": 35711, "ELEMENT_SET_NO": 999, "REV_AT_EPOCH": 87817, "BSTAR": 0.00016861371, "MEAN_MOTION_DOT": 8.94e-06, "MEAN_MOTION_DDOT": 0}, "tle": {"line1": "1 35711U 93036AQG 25349.88507994  .00000894  00000+0  16861-3 0  9996", "line2": "2 35711  74.0453 214.4239 0085495 314.6741  44.7480 14.63810454878178"}}, "geometry": {"type": "Point", "coordinates": [-162.22269972808874, -41.56581524079355]}}, {"type": "Feature", "properties": {"norad_id": 35716, "name": "COSMOS 2251 DEB", "group": "cosmos-2251-debris", "lat": -19.733479639449637, "lon": -179.67199693086303, "alt_km": 654.2179157295996, "timestamp": "2025-12-16T21:38:57.571872+00:00", "meta": {"OBJECT_NAME": "COSMOS 2251 DEB", "OBJECT_ID": "1993-036AQM", "EPOCH": "2025-12-15T23:02:15.282240", "MEAN_MOTION": 14.60090136, "ECCENTRICITY": 0.00888905, "INCLINATION": 73.9921, "RA_OF_ASC_NODE": 188.0412, "ARG_OF_PERICENTER": 28.195, "MEAN_ANOMALY": 41.8395, "EPHEMERIS_TYPE": 0, "CLASSIFICATION_TYPE": "U", "NORAD_CAT_ID": 35716, "ELEMENT_SET_NO": 999, "REV_AT_EPOCH": 87674, "BSTAR": 8.9477396e-05, "MEAN_MOTION_DOT": 4.22e-06, "MEAN_MOTION_DDOT": 0}, "tle": {"line1": "1 35716U 93036AQM 25349.95989910  .00000422  00000+0  89477-4 0  9992", "line2": "2 35716  73.9921 188.0412 0088890  28.1950  41.8395 14.60090136876749"}}, "geometry": {"type": "Point", "coordinates": [-179.67199693086303, -19.733479639449637]}}, {"type": "Feature", "properties": {"norad_id": 35717, "name": "COSMOS 2251 DEB", "group": "cosmos-2251-debris", "lat": 31.38426921179148, "lon": 19.907665382477187, "alt_km": 750.3221814434601, "timestamp": "2025-12-16T21:38:57.571883+00:00", "meta": {"OBJECT_NAME": "COSMOS 2251 DEB", "OBJECT_ID": "1993-036AQN", "EPOCH": "2025-12-15T21:36:31.335552", "MEAN_MOTION": 14.38515087, "ECCENTRICITY": 0.00772191, "INCLINATION": 74.1598, "RA_OF_ASC_NODE": 211.7132, "ARG_OF_PERICENTER": 70.2705, "MEAN_ANOMALY": 290.6758, "EPHEMERIS_TYPE": 0, "CLASSIFICATION_TYPE": "U", "NORAD_CAT_ID": 35717, "ELEMENT_SET_NO": 999, "REV_AT_EPOCH": 74145, "BSTAR": 0.0007891897, "MEAN_MOTION_DOT": 2.473e-05, "MEAN_MOTION_DDOT": 0}, "tle": {"line1": "1 35717U 93036AQN 25349.90036268  .00002473  00000+0  78919-3 0  9993", "line2": "2 35717  74.1598 211.7132 0077219  70.2705 290.6758 14.38515087741453"}}, "geometry": {"type": "Point", "coordinates": [19.907665382477187, 31.38426921179148]}}, {"type": "Feature", "properties": {"norad_id": 35718, "name": "COSMOS 2251 DEB", "group": "cosmos-2251-debris", "lat": -17.628389375733818, "lon": 116.69483088688904, "alt_km": 677.1148553672583, "timestamp": "2025-12-16T21:38:57.571893+00:00", "meta": {"OBJECT_NAME": "COSMOS 2251 DEB", "OBJECT_ID": "1993-036AQP", "EPOCH": "2025-12-15T17:56:31.598016", "MEAN_MOTION": 14.68715304, "ECCENTRICITY": 0.00105684, "INCLINATION": 74.0307, "RA_OF_ASC_NODE": 124.1491, "ARG_OF_PERICENTER": 172.9967, "MEAN_ANOMALY": 187.1353, "EPHEMERIS_TYPE": 0, "CLASSIFICATION_TYPE": "U", "NORAD_CAT_ID": 35718, "ELEMENT_SET_NO": 999, "REV_AT_EPOCH": 65884, "BSTAR": 0.0010586795, "MEAN_MOTION_DOT": 6.146e-05, "MEAN_MOTION_DDOT": 0}, "tle": {"line1": "1 35718U 93036AQP 25349.74758794  .00006146  00000+0  10587-2 0  9998", "line2": "2 35718  74.0307 124.1491 0010568 172.9967 187.1353 14.68715304658848"}}, "geometry": {"type": "Point", "coordinates": [116.69483088688904, -17.628389375733818]}}, {"type": "Feature", "properties": {"norad_id": 35721, "name": "COSMOS 2251 DEB", "group": "cosmos-2251-debris", "lat": -26.42576891081569, "lon": -1.6956526480963445, "alt_km": 813.5296129036224, "timestamp": "2025-12-16T21:38:57.571903+00:00", "meta": {"OBJECT_NAME": "COSMOS 2251 DEB", "OBJECT_ID": "1993-036AQS", "EPOCH": "2025-12-09T19:36:39.465216", "MEAN_MOTION": 14.34317214, "ECCENTRICITY": 0.01465875, "INCLINATION": 73.9489, "RA_OF_ASC_NODE": 183.1196, "ARG_OF_PERICENTER": 330.1589, "MEAN_ANOMALY": 29.126, "EPHEMERIS_TYPE": 0, "CLASSIFICATION_TYPE": "U", "NORAD_CAT_ID": 35721, "ELEMENT_SET_NO": 999, "REV_AT_EPOCH": 57747, "BSTAR": 0.0018396061, "MEAN_MOTION_DOT": 5.808e-05, "MEAN_MOTION_DDOT": 0}, "tle": {"line1": "1 35721U 93036AQS 25343.81712344  .00005808  00000+0  18396-2 0  9995", "line2": "2 35721  73.9489 183.1196 0146587 330.1589  29.1260 14.34317214577479"}}, "geometry": {"type": "Point", "coordinates": [-1.6956526480963445, -26.42576891081569]}}, {"type": "Feature", "properties": {"norad_id": 35724, "name": "COSMOS 2251 DEB", "group": "cosmos-2251-debris", "lat": 30.182100206324417, "lon": 105.17237779456713, "alt_km": 676.7283856011563, "timestamp": "2025-12-16T21:38:57.571913+00:00", "meta": {"OBJECT_NAME": "COSMOS 2251 DEB", "OBJECT_ID": "1993-036AQV", "EPOCH": "2025-12-16T06:09:29.643840", "MEAN_MOTION": 14.58206767, "ECCENTRICITY": 0.00589475, "INCLINATION": 74.0324, "RA_OF_ASC_NODE": 295.9861, "ARG_OF_PERICENTER": 88.6274, "MEAN_ANOMALY": 272.1643, "EPHEMERIS_TYPE": 0, "CLASSIFICATION_TYPE": "U", "NORAD_CAT_ID": 35724, "ELEMENT_SET_NO": 999, "REV_AT_EPOCH": 87580, "BSTAR": 0.00025759963, "MEAN_MOTION_DOT": 1.187e-05, "MEAN_MOTION_DDOT": 0}, "tle": {"line1": "1 35724U 93036AQV 25350.25659310  .00001187  00000+0  25760-3 0  9997", "line2": "2 35724  74.0324 295.9861 0058947  88.6274 272.1643 14.58206767875800"}}, "geometry": {"type": "Point", "coordinates": [105.17237779456713, 30.182100206324417]}}, {"type": "Feature", "properties": {"norad_id": 35759, "name": "COSMOS 2251 DEB", "group": "cosmos-2251-debris", "lat": 67.45392960925957, "lon": -15.544131014311612, "alt_km": 712.5023274889045, "timestamp": "2025-12-16T21:38:57.571923+00:00", "meta": {"OBJECT_NAME": "COSMOS 2251 DEB", "OBJECT_ID": "1993-036ARD", "EPOCH": "2025-12-15T07:28:12.140832", "MEAN_MOTION": 14.6490066, "ECCENTRICITY": 0.00771314, "INCLINATION": 74.0372, "RA_OF_ASC_NODE": 211.1013, "ARG_OF_PERICENTER": 328.7033, "MEAN_ANOMALY": 30.9554, "EPHEMERIS_TYPE": 0, "CLASSIFICATION_TYPE": "U", "NORAD_CAT_ID": 35759, "ELEMENT_SET_NO": 999, "REV_AT_EPOCH": 66173, "BSTAR": 0.00024007892, "MEAN_MOTION_DOT": 1.307e-05, "MEAN_MOTION_DDOT": 0}, "tle": {"line1": "1 35759U 93036ARD 25349.31125163  .00001307  00000+0  24008-3 0  9992", "line2": "2 35759  74.0372 211.1013 0077131 328.7033  30.9554 14.64900660661733"}}, "geometry": {"type": "Point", "coordinates": [-15.544131014311612, 67.45392960925957]}}]}